start=new Date('2022-02-19T00:00:00.000Z').valueOf();
sats=[{"FILE":"3307132","BSTAR":"-0.00006428000000","CLASSIFICATION_TYPE":"U","CENTER_NAME":"EARTH","DECAY_DATE":null,"ARG_OF_PERICENTER":"53.2486","EPHEMERIS_TYPE":"0","COUNTRY_CODE":"US","NORAD_CAT_ID":"44941","ECCENTRICITY":"0.00016490","APOAPSIS":"548.343","TLE_LINE1":"1 44941U 20001AD  22049.73580820 -.00001239  00000-0 -64280-4 0  9996","OBJECT_NAME":"STARLINK-1094","ELEMENT_SET_NO":"999","PERIAPSIS":"546.059","TIME_SYSTEM":"UTC","MEAN_MOTION_DDOT":"0.0000000000000","LAUNCH_DATE":"2020-01-07","MEAN_ANOMALY":"306.8654","REV_AT_EPOCH":"11706","OBJECT_ID":"2020-001AD","TLE_LINE2":"2 44941  53.0533 130.3901 0001649  53.2486 306.8654 15.06404137117066","EPOCH":"2022-02-18T17:39:33.828480","GP_ID":"196331756","REF_FRAME":"TEME","PERIOD":"95.592","MEAN_MOTION":"15.06404137","SITE":"AFETR","RA_OF_ASC_NODE":"130.3901","OBJECT_TYPE":"PAYLOAD","INCLINATION":"53.0533","SEMIMAJOR_AXIS":"6925.336","RCS_SIZE":"LARGE","MEAN_MOTION_DOT":"-0.00001239","MEAN_ELEMENT_THEORY":"SGP4"},{"ELEMENT_SET_NO":"999","PERIAPSIS":"546.317","TIME_SYSTEM":"UTC","LAUNCH_DATE":"2020-01-07","MEAN_MOTION_DDOT":"0.0000000000000","CENTER_NAME":"EARTH","FILE":"3307132","BSTAR":"0.00002959100000","CLASSIFICATION_TYPE":"U","ECCENTRICITY":"0.00013090","COUNTRY_CODE":"US","NORAD_CAT_ID":"44942","EPHEMERIS_TYPE":"0","DECAY_DATE":null,"ARG_OF_PERICENTER":"59.7662","OBJECT_NAME":"STARLINK-1096","TLE_LINE1":"1 44942U 20001AE  22049.65472972  .00000159  00000-0  29591-4 0  9990","APOAPSIS":"548.130","MEAN_MOTION":"15.06396903","PERIOD":"95.592","RA_OF_ASC_NODE":"130.7530","SITE":"AFETR","RCS_SIZE":"LARGE","SEMIMAJOR_AXIS":"6925.358","INCLINATION":"53.0539","OBJECT_TYPE":"PAYLOAD","MEAN_ELEMENT_THEORY":"SGP4","MEAN_MOTION_DOT":"0.00000159","OBJECT_ID":"2020-001AE","REV_AT_EPOCH":"11705","MEAN_ANOMALY":"300.3457","TLE_LINE2":"2 44942  53.0539 130.7530 0001309  59.7662 300.3457 15.06396903117055","EPOCH":"2022-02-18T15:42:48.647808","GP_ID":"196331504","REF_FRAME":"TEME"},{"PERIOD":"95.592","MEAN_MOTION":"15.06401410","RA_OF_ASC_NODE":"130.5593","SITE":"AFETR","SEMIMAJOR_AXIS":"6925.344","RCS_SIZE":"LARGE","OBJECT_TYPE":"PAYLOAD","INCLINATION":"53.0533","MEAN_ELEMENT_THEORY":"SGP4","MEAN_MOTION_DOT":"-0.00002345","OBJECT_ID":"2020-001AF","MEAN_ANOMALY":"294.5782","REV_AT_EPOCH":"11705","TLE_LINE2":"2 44943  53.0533 130.5593 0001513  65.5364 294.5782 15.06401410117053","EPOCH":"2022-02-18T16:46:29.464032","REF_FRAME":"TEME","GP_ID":"196330755","ELEMENT_SET_NO":"999","PERIAPSIS":"546.161","TIME_SYSTEM":"UTC","LAUNCH_DATE":"2020-01-07","MEAN_MOTION_DDOT":"0.0000000000000","CENTER_NAME":"EARTH","BSTAR":"-0.00013859000000","FILE":"3307132","CLASSIFICATION_TYPE":"U","EPHEMERIS_TYPE":"0","NORAD_CAT_ID":"44943","COUNTRY_CODE":"US","ECCENTRICITY":"0.00015130","ARG_OF_PERICENTER":"65.5364","DECAY_DATE":null,"TLE_LINE1":"1 44943U 20001AF  22049.69895213 -.00002345  00000-0 -13859-3 0  9992","OBJECT_NAME":"STARLINK-1100","APOAPSIS":"548.257"},{"PERIAPSIS":"546.169","ELEMENT_SET_NO":"999","LAUNCH_DATE":"2020-01-07","MEAN_MOTION_DDOT":"0.0000000000000","TIME_SYSTEM":"UTC","CENTER_NAME":"EARTH","CLASSIFICATION_TYPE":"U","FILE":"3306500","BSTAR":"0.00059520000000","OBJECT_NAME":"STARLINK-1108","TLE_LINE1":"1 44944U 20001AG  22049.54782806  .00008599  00000-0  59520-3 0  9990","APOAPSIS":"548.157","NORAD_CAT_ID":"44944","COUNTRY_CODE":"US","ECCENTRICITY":"0.00014350","EPHEMERIS_TYPE":"0","ARG_OF_PERICENTER":"66.9692","DECAY_DATE":null,"RA_OF_ASC_NODE":"131.2336","SITE":"AFETR","MEAN_MOTION":"15.06416587","PERIOD":"95.591","MEAN_ELEMENT_THEORY":"SGP4","MEAN_MOTION_DOT":"0.00008599","RCS_SIZE":"LARGE","SEMIMAJOR_AXIS":"6925.298","INCLINATION":"53.0531","OBJECT_TYPE":"PAYLOAD","TLE_LINE2":"2 44944  53.0531 131.2336 0001435  66.9692 293.1448 15.06416587117030","OBJECT_ID":"2020-001AG","MEAN_ANOMALY":"293.1448","REV_AT_EPOCH":"11703","GP_ID":"196291196","REF_FRAME":"TEME","EPOCH":"2022-02-18T13:08:52.344384"},{"RA_OF_ASC_NODE":"129.6066","SITE":"AFETR","MEAN_MOTION":"15.06401806","PERIOD":"95.592","MEAN_ELEMENT_THEORY":"SGP4","MEAN_MOTION_DOT":"0.00002550","RCS_SIZE":"LARGE","SEMIMAJOR_AXIS":"6925.343","INCLINATION":"53.0532","OBJECT_TYPE":"PAYLOAD","TLE_LINE2":"2 44945  53.0532 129.6066 0001624  64.2064 295.9092 15.06401806117085","OBJECT_ID":"2020-001AH","MEAN_ANOMALY":"295.9092","REV_AT_EPOCH":"11708","REF_FRAME":"TEME","GP_ID":"196331257","EPOCH":"2022-02-18T21:49:02.676000","PERIAPSIS":"546.083","ELEMENT_SET_NO":"999","LAUNCH_DATE":"2020-01-07","MEAN_MOTION_DDOT":"0.0000000000000","TIME_SYSTEM":"UTC","CENTER_NAME":"EARTH","FILE":"3307132","CLASSIFICATION_TYPE":"U","BSTAR":"0.00019002000000","OBJECT_NAME":"STARLINK-1109","TLE_LINE1":"1 44945U 20001AH  22049.90905875  .00002550  00000-0  19002-3 0  9996","APOAPSIS":"548.333","COUNTRY_CODE":"US","ECCENTRICITY":"0.00016240","NORAD_CAT_ID":"44945","EPHEMERIS_TYPE":"0","DECAY_DATE":null,"ARG_OF_PERICENTER":"64.2064"},{"ELEMENT_SET_NO":"999","PERIAPSIS":"534.913","TIME_SYSTEM":"UTC","MEAN_MOTION_DDOT":"0.0000000000000","LAUNCH_DATE":"2020-01-07","CLASSIFICATION_TYPE":"U","FILE":"3307132","BSTAR":"0.00059235000000","CENTER_NAME":"EARTH","ARG_OF_PERICENTER":"146.9539","DECAY_DATE":null,"EPHEMERIS_TYPE":"0","COUNTRY_CODE":"US","ECCENTRICITY":"0.00014480","NORAD_CAT_ID":"44946","APOAPSIS":"536.915","TLE_LINE1":"1 44946U 20001AJ  22049.90730986  .00009480  00000-0  59235-3 0  9997","OBJECT_NAME":"STARLINK-1110","PERIOD":"95.358","MEAN_MOTION":"15.10094432","SITE":"AFETR","RA_OF_ASC_NODE":"123.0103","OBJECT_TYPE":"PAYLOAD","INCLINATION":"53.0034","SEMIMAJOR_AXIS":"6914.049","RCS_SIZE":"LARGE","MEAN_MOTION_DOT":"0.00009480","MEAN_ELEMENT_THEORY":"SGP4","REV_AT_EPOCH":"11715","MEAN_ANOMALY":"213.1541","OBJECT_ID":"2020-001AJ","TLE_LINE2":"2 44946  53.0034 123.0103 0001448 146.9539 213.1541 15.10094432117159","EPOCH":"2022-02-18T21:46:31.571904","GP_ID":"196332004","REF_FRAME":"TEME"},{"RA_OF_ASC_NODE":"130.3978","SITE":"AFETR","MEAN_MOTION":"15.06401187","PERIOD":"95.592","MEAN_ELEMENT_THEORY":"SGP4","MEAN_MOTION_DOT":"0.00004686","RCS_SIZE":"LARGE","SEMIMAJOR_AXIS":"6925.345","INCLINATION":"53.0527","OBJECT_TYPE":"PAYLOAD","TLE_LINE2":"2 44947  53.0527 130.3978 0001335  51.6612 308.4496 15.06401187117068","OBJECT_ID":"2020-001AK","REV_AT_EPOCH":"11706","MEAN_ANOMALY":"308.4496","REF_FRAME":"TEME","GP_ID":"196330256","EPOCH":"2022-02-18T17:34:15.726144","PERIAPSIS":"546.285","ELEMENT_SET_NO":"999","LAUNCH_DATE":"2020-01-07","MEAN_MOTION_DDOT":"0.0000000000000","TIME_SYSTEM":"UTC","CENTER_NAME":"EARTH","FILE":"3307132","CLASSIFICATION_TYPE":"U","BSTAR":"0.00033323000000","OBJECT_NAME":"STARLINK-1116","TLE_LINE1":"1 44947U 20001AK  22049.73212646  .00004686  00000-0  33323-3 0  9990","APOAPSIS":"548.134","COUNTRY_CODE":"US","NORAD_CAT_ID":"44947","ECCENTRICITY":"0.00013350","EPHEMERIS_TYPE":"0","DECAY_DATE":null,"ARG_OF_PERICENTER":"51.6612"},{"GP_ID":"196330506","REF_FRAME":"TEME","EPOCH":"2022-02-18T16:35:52.511136","TLE_LINE2":"2 44949  53.0526 130.5945 0001482  59.3307 300.7828 15.06408175117051","REV_AT_EPOCH":"11705","MEAN_ANOMALY":"300.7828","OBJECT_ID":"2020-001AM","MEAN_MOTION_DOT":"0.00002773","MEAN_ELEMENT_THEORY":"SGP4","OBJECT_TYPE":"PAYLOAD","INCLINATION":"53.0526","SEMIMAJOR_AXIS":"6925.324","RCS_SIZE":"LARGE","SITE":"AFETR","RA_OF_ASC_NODE":"130.5945","PERIOD":"95.592","MEAN_MOTION":"15.06408175","APOAPSIS":"548.215","TLE_LINE1":"1 44949U 20001AM  22049.69157999  .00002773  00000-0  20497-3 0  9999","OBJECT_NAME":"STARLINK-1122","ARG_OF_PERICENTER":"59.3307","DECAY_DATE":null,"EPHEMERIS_TYPE":"0","NORAD_CAT_ID":"44949","COUNTRY_CODE":"US","ECCENTRICITY":"0.00014820","BSTAR":"0.00020497000000","FILE":"3307132","CLASSIFICATION_TYPE":"U","CENTER_NAME":"EARTH","MEAN_MOTION_DDOT":"0.0000000000000","LAUNCH_DATE":"2020-01-07","TIME_SYSTEM":"UTC","PERIAPSIS":"546.162","ELEMENT_SET_NO":"999"},{"ELEMENT_SET_NO":"999","PERIAPSIS":"546.261","TIME_SYSTEM":"UTC","MEAN_MOTION_DDOT":"0.0000000000000","LAUNCH_DATE":"2020-01-07","FILE":"3307132","BSTAR":"-0.00037761000000","CLASSIFICATION_TYPE":"U","CENTER_NAME":"EARTH","DECAY_DATE":null,"ARG_OF_PERICENTER":"63.3983","EPHEMERIS_TYPE":"0","ECCENTRICITY":"0.00012640","COUNTRY_CODE":"US","NORAD_CAT_ID":"44950","APOAPSIS":"548.012","TLE_LINE1":"1 44950U 20001AN  22049.90535760 -.00005905  00000-0 -37761-3 0  9995","OBJECT_NAME":"STARLINK-1125","PERIOD":"95.591","MEAN_MOTION":"15.06425145","SITE":"AFETR","RA_OF_ASC_NODE":"129.6269","OBJECT_TYPE":"PAYLOAD","INCLINATION":"53.0536","SEMIMAJOR_AXIS":"6925.271","RCS_SIZE":"LARGE","MEAN_MOTION_DOT":"-0.00005905","MEAN_ELEMENT_THEORY":"SGP4","REV_AT_EPOCH":"11708","MEAN_ANOMALY":"296.7135","OBJECT_ID":"2020-001AN","TLE_LINE2":"2 44950  53.0536 129.6269 0001264  63.3983 296.7135 15.06425145117089","EPOCH":"2022-02-18T21:43:42.896640","GP_ID":"196331757","REF_FRAME":"TEME"},{"ARG_OF_PERICENTER":"145.1459","DECAY_DATE":null,"COUNTRY_CODE":"US","NORAD_CAT_ID":"44951","ECCENTRICITY":"0.00016080","EPHEMERIS_TYPE":"0","APOAPSIS":"537.536","OBJECT_NAME":"STARLINK-1126","TLE_LINE1":"1 44951U 20001AP  22049.58738354  .00009557  00000-0  59973-3 0  9998","FILE":"3307132","CLASSIFICATION_TYPE":"U","BSTAR":"0.00059973000000","CENTER_NAME":"EARTH","TIME_SYSTEM":"UTC","MEAN_MOTION_DDOT":"0.0000000000000","LAUNCH_DATE":"2020-01-07","ELEMENT_SET_NO":"999","PERIAPSIS":"535.312","EPOCH":"2022-02-18T14:05:49.937856","REF_FRAME":"TEME","GP_ID":"196331505","MEAN_ANOMALY":"214.9636","REV_AT_EPOCH":"11838","OBJECT_ID":"2020-001AP","TLE_LINE2":"2 44951  53.0025 125.1158 0001608 145.1459 214.9636 15.09927382118385","INCLINATION":"53.0025","OBJECT_TYPE":"PAYLOAD","RCS_SIZE":"LARGE","SEMIMAJOR_AXIS":"6914.559","MEAN_ELEMENT_THEORY":"SGP4","MEAN_MOTION_DOT":"0.00009557","MEAN_MOTION":"15.09927382","PERIOD":"95.369","SITE":"AFETR","RA_OF_ASC_NODE":"125.1158"}];
